{
  "type": "FeatureCollection",
  "name": "Visakhapatnam_Wards",
  "crs": {
    "type": "name",
    "properties": {
      "name": "urn:ogc:def:crs:OGC:1.3:CRS84"
    }
  },
  "features": [
    {
      "type": "Feature",
      "properties": {
        "ward_id": "VIZ-01",
        "name": "Gajuwaka",
        "zone": "South Zone",
        "population": 72000,
        "population_density": 8500,
        "vulnerability_score": 78,
        "outdoor_worker_ratio": 0.42,
        "healthcare_access_score": 58,
        "green_cover_percent": 12,
        "primary_exposure": "Industrial & Port Workers, Metal Fabrication, High Radiant Surfaces"
      },
      "geometry": {
        "type": "Polygon",
        "coordinates": [
          [
            [83.180, 17.670],
            [83.225, 17.670],
            [83.235, 17.705],
            [83.195, 17.715],
            [83.175, 17.690],
            [83.180, 17.670]
          ]
        ]
      }
    },
    {
      "type": "Feature",
      "properties": {
        "ward_id": "VIZ-02",
        "name": "Madhurawada",
        "zone": "North Zone",
        "population": 54000,
        "population_density": 4200,
        "vulnerability_score": 45,
        "outdoor_worker_ratio": 0.22,
        "healthcare_access_score": 75,
        "green_cover_percent": 28,
        "primary_exposure": "IT Parks, High-Rise Residential Construction, Inland Heat Trapping"
      },
      "geometry": {
        "type": "Polygon",
        "coordinates": [
          [
            [83.330, 17.795],
            [83.375, 17.800],
            [83.385, 17.845],
            [83.340, 17.850],
            [83.320, 17.815],
            [83.330, 17.795]
          ]
        ]
      }
    },
    {
      "type": "Feature",
      "properties": {
        "ward_id": "VIZ-03",
        "name": "Anakapalle",
        "zone": "West Zone",
        "population": 65000,
        "population_density": 4900,
        "vulnerability_score": 72,
        "outdoor_worker_ratio": 0.51,
        "healthcare_access_score": 52,
        "green_cover_percent": 18,
        "primary_exposure": "Agricultural Workers, Open Jaggery Markets, Inland High Temperatures"
      },
      "geometry": {
        "type": "Polygon",
        "coordinates": [
          [
            [82.975, 17.665],
            [83.030, 17.670],
            [83.040, 17.715],
            [82.990, 17.725],
            [82.965, 17.690],
            [82.975, 17.665]
          ]
        ]
      }
    },
    {
      "type": "Feature",
      "properties": {
        "ward_id": "VIZ-04",
        "name": "Bheemunipatnam",
        "zone": "Coastal East Zone",
        "population": 38000,
        "population_density": 3100,
        "vulnerability_score": 62,
        "outdoor_worker_ratio": 0.46,
        "healthcare_access_score": 60,
        "green_cover_percent": 34,
        "primary_exposure": "Artisanal Fisherfolk, Coastal Salt Pans, High Relative Humidity Stress"
      },
      "geometry": {
        "type": "Polygon",
        "coordinates": [
          [
            [83.430, 17.870],
            [83.475, 17.875],
            [83.485, 17.920],
            [83.445, 17.930],
            [83.420, 17.895],
            [83.430, 17.870]
          ]
        ]
      }
    },
    {
      "type": "Feature",
      "properties": {
        "ward_id": "VIZ-05",
        "name": "MVP Colony",
        "zone": "Central Urban Zone",
        "population": 48000,
        "population_density": 9200,
        "vulnerability_score": 38,
        "outdoor_worker_ratio": 0.18,
        "healthcare_access_score": 92,
        "green_cover_percent": 22,
        "primary_exposure": "High Urban Heat Island Density, Commercial Hubs, Elderly Demographics"
      },
      "geometry": {
        "type": "Polygon",
        "coordinates": [
          [
            [83.315, 17.725],
            [83.355, 17.730],
            [83.360, 17.760],
            [83.325, 17.765],
            [83.305, 17.740],
            [83.315, 17.725]
          ]
        ]
      }
    }
  ]
}
